IXPE                    
1 49954U 21121A   24204.91667824  .00008286  00000+0  60326-3 0  9996
2 49954   0.2288 127.8309 0009360  90.3308 255.5345 14.98681697  5502
